{
  "type": "FeatureCollection",
  "features": [
    {
      "type": "Feature",
      "properties": {
        "norad_id": 22490,
        "name": "SCD 1",
        "group": "resource",
        "lat": -12.73580847729838,
        "lon": -135.52743488048336,
        "alt_km": 715.2476337878434,
        "timestamp": "2025-12-16T19:34:23.921309+00:00",
        "meta_object_name": "SCD 1",
        "meta_object_id": "1993-009B",
        "meta_epoch": "2025-12-15T20:47:09.278304",
        "meta_mean_motion": 14.460013,
        "meta_eccentricity": 0.00419266,
        "meta_inclination": 24.9692,
        "meta_ra_of_asc_node": 259.3886,
        "meta_arg_of_pericenter": 358.1909,
        "meta_mean_anomaly": 58.02,
        "meta_ephemeris_type": 0,
        "meta_classification_type": "U",
        "meta_norad_cat_id": 22490,
        "meta_element_set_no": 999,
        "meta_rev_at_epoch": 73455,
        "meta_bstar": 9.0830413e-05,
        "meta_mean_motion_dot": 5.17e-06,
        "meta_mean_motion_ddot": 0,
        "tle_line1": "1 22490U 93009B   25349.86607961  .00000517  00000+0  90830-4 0  9990",
        "tle_line2": "2 22490  24.9692 259.3886 0041926 358.1909  58.0200 14.46001300734557"
      },
      "geometry": {
        "type": "Point",
        "coordinates": [
          -135.52743488048336,
          -12.73580847729838
        ]
      }
    },
    {
      "type": "Feature",
      "properties": {
        "norad_id": 25397,
        "name": "TECHSAT 1B (GO-32)",
        "group": "resource",
        "lat": 2.661520748418714,
        "lon": 154.54343386261453,
        "alt_km": 814.0073392572958,
        "timestamp": "2025-12-16T19:34:23.921340+00:00",
        "meta_object_name": "TECHSAT 1B (GO-32)",
        "meta_object_id": "1998-043D",
        "meta_epoch": "2025-12-15T22:30:48.793536",
        "meta_mean_motion": 14.24377985,
        "meta_eccentricity": 0.00019811,
        "meta_inclination": 98.9922,
        "meta_ra_of_asc_node": 333.224,
        "meta_arg_of_pericenter": 52.2495,
        "meta_mean_anomaly": 307.8863,
        "meta_ephemeris_type": 0,
        "meta_classification_type": "U",
        "meta_norad_cat_id": 25397,
        "meta_element_set_no": 999,
        "meta_rev_at_epoch": 42524,
        "meta_bstar": 5.9973632e-05,
        "meta_mean_motion_dot": 9.2e-07,
        "meta_mean_motion_ddot": 0,
        "tle_line1": "1 25397U 98043D   25349.93806474  .00000092  00000+0  59974-4 0  9992",
        "tle_line2": "2 25397  98.9922 333.2240 0001981  52.2495 307.8863 14.24377985425242"
      },
      "geometry": {
        "type": "Point",
        "coordinates": [
          154.54343386261453,
          2.661520748418714
        ]
      }
    },
    {
      "type": "Feature",
      "properties": {
        "norad_id": 25504,
        "name": "SCD 2",
        "group": "resource",
        "lat": -3.2291943454721537,
        "lon": 109.81119460202883,
        "alt_km": 727.1634409614107,
        "timestamp": "2025-12-16T19:34:23.921355+00:00",
        "meta_object_name": "SCD 2",
        "meta_object_id": "1998-060A",
        "meta_epoch": "2025-12-15T17:43:04.045728",
        "meta_mean_motion": 14.45424982,
        "meta_eccentricity": 0.00167659,
        "meta_inclination": 24.9938,
        "meta_ra_of_asc_node": 123.4064,
        "meta_arg_of_pericenter": 345.4677,
        "meta_mean_anomaly": 149.7184,
        "meta_ephemeris_type": 0,
        "meta_classification_type": "U",
        "meta_norad_cat_id": 25504,
        "meta_element_set_no": 999,
        "meta_rev_at_epoch": 43375,
        "meta_bstar": 7.0984629e-05,
        "meta_mean_motion_dot": 4.36e-06,
        "meta_mean_motion_ddot": 0,
        "tle_line1": "1 25504U 98060A   25349.73824127  .00000436  00000+0  70985-4 0  9991",
        "tle_line2": "2 25504  24.9938 123.4064 0016765 345.4677 149.7184 14.45424982433753"
      },
      "geometry": {
        "type": "Point",
        "coordinates": [
          109.81119460202883,
          -3.2291943454721537
        ]
      }
    },
    {
      "type": "Feature",
      "properties": {
        "norad_id": 25757,
        "name": "DLR-TUBSAT",
        "group": "resource",
        "lat": 80.10770268890722,
        "lon": -85.42321635740578,
        "alt_km": 711.3962214088833,
        "timestamp": "2025-12-16T19:34:23.921368+00:00",
        "meta_object_name": "DLR-TUBSAT",
        "meta_object_id": "1999-029B",
        "meta_epoch": "2025-12-15T23:20:25.315008",
        "meta_mean_motion": 14.52358976,
        "meta_eccentricity": 0.00141051,
        "meta_inclination": 98.6565,
        "meta_ra_of_asc_node": 334.5861,
        "meta_arg_of_pericenter": 182.7828,
        "meta_mean_anomaly": 177.329,
        "meta_ephemeris_type": 0,
        "meta_classification_type": "U",
        "meta_norad_cat_id": 25757,
        "meta_element_set_no": 999,
        "meta_rev_at_epoch": 40665,
        "meta_bstar": 4.4282593e-05,
        "meta_mean_motion_dot": 1.32e-06,
        "meta_mean_motion_ddot": 0,
        "tle_line1": "1 25757U 99029B   25349.97251522  .00000132  00000+0  44283-4 0  9991",
        "tle_line2": "2 25757  98.6565 334.5861 0014105 182.7828 177.3290 14.52358976406654"
      },
      "geometry": {
        "type": "Point",
        "coordinates": [
          -85.42321635740578,
          80.10770268890722
        ]
      }
    },
    {
      "type": "Feature",
      "properties": {
        "norad_id": 25994,
        "name": "TERRA",
        "group": "resource",
        "lat": -81.27423335148093,
        "lon": 108.32189015312544,
        "alt_km": 700.1231449373308,
        "timestamp": "2025-12-16T19:34:23.921381+00:00",
        "meta_object_name": "TERRA",
        "meta_object_id": "1999-068A",
        "meta_epoch": "2025-12-15T21:44:38.561568",
        "meta_mean_motion": 14.6090545,
        "meta_eccentricity": 0.00036021,
        "meta_inclination": 97.9746,
        "meta_ra_of_asc_node": 41.4743,
        "meta_arg_of_pericenter": 88.3629,
        "meta_mean_anomaly": 84.4744,
        "meta_ephemeris_type": 0,
        "meta_classification_type": "U",
        "meta_norad_cat_id": 25994,
        "meta_element_set_no": 999,
        "meta_rev_at_epoch": 38284,
        "meta_bstar": 0.00010356677,
        "meta_mean_motion_dot": 4.62e-06,
        "meta_mean_motion_ddot": 0,
        "tle_line1": "1 25994U 99068A   25349.90600187  .00000462  00000+0  10357-3 0  9995",
        "tle_line2": "2 25994  97.9746  41.4743 0003602  88.3629  84.4744 14.60905450382843"
      },
      "geometry": {
        "type": "Point",
        "coordinates": [
          108.32189015312544,
          -81.27423335148093
        ]
      }
    },
    {
      "type": "Feature",
      "properties": {
        "norad_id": 27004,
        "name": "MAROC-TUBSAT",
        "group": "resource",
        "lat": 14.416347418628966,
        "lon": 156.78725714337767,
        "alt_km": 1007.5756150359484,
        "timestamp": "2025-12-16T19:34:23.921393+00:00",
        "meta_object_name": "MAROC-TUBSAT",
        "meta_object_id": "2001-056D",
        "meta_epoch": "2025-12-15T23:04:15.856032",
        "meta_mean_motion": 13.70253073,
        "meta_eccentricity": 0.00191204,
        "meta_inclination": 99.7912,
        "meta_ra_of_asc_node": 158.4626,
        "meta_arg_of_pericenter": 251.5474,
        "meta_mean_anomaly": 231.2153,
        "meta_ephemeris_type": 0,
        "meta_classification_type": "U",
        "meta_norad_cat_id": 27004,
        "meta_element_set_no": 999,
        "meta_rev_at_epoch": 20109,
        "meta_bstar": 3.5042534e-05,
        "meta_mean_motion_dot": -1.6e-07,
        "meta_mean_motion_ddot": 0,
        "tle_line1": "1 27004U 01056D   25349.96129463 -.00000016  00000+0  35043-4 0  9994",
        "tle_line2": "2 27004  99.7912 158.4626 0019120 251.5474 231.2153 13.70253073201095"
      },
      "geometry": {
        "type": "Point",
        "coordinates": [
          156.78725714337767,
          14.416347418628966
        ]
      }
    },
    {
      "type": "Feature",
      "properties": {
        "norad_id": 27424,
        "name": "AQUA",
        "group": "resource",
        "lat": 17.571055659194712,
        "lon": 134.44402774569593,
        "alt_km": 687.2028245637212,
        "timestamp": "2025-12-16T19:34:23.921404+00:00",
        "meta_object_name": "AQUA",
        "meta_object_id": "2002-022A",
        "meta_epoch": "2025-12-15T23:18:20.304576",
        "meta_mean_motion": 14.61816755,
        "meta_eccentricity": 0.00012093,
        "meta_inclination": 98.404,
        "meta_ra_of_asc_node": 310.9026,
        "meta_arg_of_pericenter": 114.3239,
        "meta_mean_anomaly": 286.2663,
        "meta_ephemeris_type": 0,
        "meta_classification_type": "U",
        "meta_norad_cat_id": 27424,
        "meta_element_set_no": 999,
        "meta_rev_at_epoch": 25650,
        "meta_bstar": 0.00021483809,
        "meta_mean_motion_dot": 1.024e-05,
        "meta_mean_motion_ddot": 0,
        "tle_line1": "1 27424U 02022A   25349.97106834  .00001024  00000+0  21484-3 0  9994",
        "tle_line2": "2 27424  98.4040 310.9026 0001209 114.3239 286.2663 14.61816755256507"
      },
      "geometry": {
        "type": "Point",
        "coordinates": [
          134.44402774569593,
          17.571055659194712
        ]
      }
    }
  ]
}